<?xml version="1.0" encoding="UTF-8"?>
<srvMgtUtilReq xmlns="urn:ccsds:schema:cssm:1.0.0"
					 xmlns:xsi="http://www.w3.org/2001/XMLSchema-instance"
					 xmlns:xmi="http://www.omg.org/XMI"
   					 xsi:schemaLocation="urn:ccsds:schema:cssm:1.0.0 902x09w0_19-Smurf.xsd">
 			 
	<srvMgtUtilReqHeader originatingOrganization="ESOC"
						 generationTime="2020-165T10:05:00.000Z"
						 version="1"
						 startTime="2020-166T00:00:00.000Z"
						 endTime="2020-167T00:00:00.000Z"
						 purpose="Example of submiision of OEM v2 trajectory data..."
						 description="Request description..."
						 utilizationReqStatus="TEST">
	</srvMgtUtilReqHeader>

	<submissionReq requestID="Request-123456">
                              <spaceUserNode>Test</spaceUserNode>                              
							  <opmWrapper trajectoryID="TestTrajectoryIdforOPMV2-1234">


<!--********************************************************************************************************************** -->
<!-- OPM defined in CCSDS 502.0-B-2 and CCSDS 505.0-B-1 starts below                                                       -->
<!--********************************************************************************************************************** -->

							  	 <opm  xmlns:xsi="http://www.w3.org/2001/XMLSchema-instance"
                                       xmlns:ndm="urn:ccsds:schema:ndmxml"
                                       xsi:noNamespaceSchemaLocation="https://sanaregistry.org/r/ndmxml_qualified/ndmxml-2.0.0-master-2.0.xsd"
							  	       id="CCSDS_OPM_VERS" version="2.0">
							  	    <ndm:header>
							  	   	   <ndm:COMMENT>For this test, NASA/GSFC will send an OPM to NASA/JPL.</ndm:COMMENT>
							  	   	   <ndm:COMMENT>In this simple case, there will be no Kepelerian elements, no maneuver, no spacecraft parameters, and no covariance matrix; this is essentially just the state vector.</ndm:COMMENT>
							  	       <ndm:CREATION_DATE>2009-05-18T13:06:00</ndm:CREATION_DATE>
							  	       <ndm:ORIGINATOR>GSFC</ndm:ORIGINATOR>
							  	    </ndm:header>
							  	    <ndm:body>
							  	       <ndm:segment>
							  	          <ndm:metadata>
							  	             <ndm:OBJECT_NAME>SOHO</ndm:OBJECT_NAME>
							  	             <ndm:OBJECT_ID>2009-000A</ndm:OBJECT_ID>
							  	             <ndm:CENTER_NAME>EARTH</ndm:CENTER_NAME>
							  	             <ndm:REF_FRAME>EME2000</ndm:REF_FRAME>
							  	             <ndm:TIME_SYSTEM>UTC</ndm:TIME_SYSTEM>
							  	          </ndm:metadata>
							  	          <ndm:data>
							  	             <ndm:stateVector>
							  	                <ndm:EPOCH>2009-04-28T00:00:00</ndm:EPOCH>
							  	                <ndm:X>0.11480770338073E+07</ndm:X>
							  	                <ndm:Y>0.50826618901580E+06</ndm:Y>
							  	                <ndm:Z>0.32422917889939E+06</ndm:Z>
							  	                <ndm:X_DOT>-0.29736064079430</ndm:X_DOT>
							  	                <ndm:Y_DOT>0.39070228393147</ndm:Y_DOT>
							  	                <ndm:Z_DOT>0.19156258887615</ndm:Z_DOT>
							  	             </ndm:stateVector>
							  	          </ndm:data>
							  	       </ndm:segment>
							  	    </ndm:body>
							  	 </opm>


<!--********************************************************************************************************************** -->
<!-- OPM defined in CCSDS 502.0-B-2 and CCSDS 505.0-B-1 finishes above                                                     -->
<!--********************************************************************************************************************** -->

							  </opmWrapper>
	</submissionReq>
	
</srvMgtUtilReq>